[
    {
        "CCSDS_OMM_VERS": "3.0",
        "COMMENT": "GENERATED VIA SPACE-TRACK.ORG API",
        "CREATION_DATE": "2025-03-02T18:08:23",
        "ORIGINATOR": "18 SPCS",
        "OBJECT_NAME": "BEIDOU 2 G8",
        "OBJECT_ID": "2019-027A",
        "CENTER_NAME": "EARTH",
        "REF_FRAME": "TEME",
        "TIME_SYSTEM": "UTC",
        "MEAN_ELEMENT_THEORY": "SGP4",
        "EPOCH": "2025-03-02T15:02:54.513312",
        "MEAN_MOTION": "1.00269461",
        "ECCENTRICITY": "0.00058380",
        "INCLINATION": "1.4208",
        "RA_OF_ASC_NODE": "74.5269",
        "ARG_OF_PERICENTER": "248.4032",
        "MEAN_ANOMALY": "207.9219",
        "EPHEMERIS_TYPE": "0",
        "CLASSIFICATION_TYPE": "U",
        "NORAD_CAT_ID": "44231",
        "ELEMENT_SET_NO": "999",
        "REV_AT_EPOCH": "2135",
        "BSTAR": "0.00000000000000",
        "MEAN_MOTION_DOT": "-0.00000251",
        "MEAN_MOTION_DDOT": "0.0000000000000",
        "SEMIMAJOR_AXIS": "42165.383",
        "PERIOD": "1436.130",
        "APOAPSIS": "35811.865",
        "PERIAPSIS": "35762.632",
        "OBJECT_TYPE": "PAYLOAD",
        "RCS_SIZE": "LARGE",
        "COUNTRY_CODE": "PRC",
        "LAUNCH_DATE": "2019-05-17",
        "SITE": "XSC",
        "DECAY_DATE": null,
        "FILE": "4657142",
        "GP_ID": "282087820",
        "TLE_LINE0": "0 BEIDOU 2 G8",
        "TLE_LINE1": "1 44231U 19027A   25061.62701983 -.00000251  00000-0  00000-0 0  9992",
        "TLE_LINE2": "2 44231   1.4208  74.5269 0005838 248.4032 207.9219  1.00269461 21351"
    }
]